CCSDS_OMM_VERS = 2.0
CREATION_DATE  = 
ORIGINATOR     = 

OBJECT_NAME    = 2025-284B
OBJECT_ID      = 2025-284B
CENTER_NAME    = EARTH
REF_FRAME      = TEME
TIME_SYSTEM    = UTC
MEAN_ELEMENT_THEORY = SGP/SGP4

EPOCH          = 2025-12-16T06:51:11.417184
MEAN_MOTION    = 15.18985981
ECCENTRICITY   = .00081793
INCLINATION    = 80.4045
RA_OF_ASC_NODE = 125.2713
ARG_OF_PERICENTER = 234.9626
MEAN_ANOMALY   = 125.0834

EPHEMERIS_TYPE = 0
CLASSIFICATION_TYPE = U
NORAD_CAT_ID   = 66914
ELEMENT_SET_NO = 999
REV_AT_EPOCH   = 166
BSTAR          = .38444995E-3
MEAN_MOTION_DOT = .8068E-4
MEAN_MOTION_DDOT = 0

CCSDS_OMM_VERS = 2.0
CREATION_DATE  = 
ORIGINATOR     = 

OBJECT_NAME    = HULIANWANG DIGUI-105
OBJECT_ID      = 2025-285A
CENTER_NAME    = EARTH
REF_FRAME      = TEME
TIME_SYSTEM    = UTC
MEAN_ELEMENT_THEORY = SGP/SGP4

EPOCH          = 2025-12-26T22:36:03.830400
MEAN_MOTION    = 14.02426680
ECCENTRICITY   = .00080432
INCLINATION    = 50.0057
RA_OF_ASC_NODE = 59.4477
ARG_OF_PERICENTER = 331.7814
MEAN_ANOMALY   = 28.2653

EPHEMERIS_TYPE = 0
CLASSIFICATION_TYPE = U
NORAD_CAT_ID   = 66915
ELEMENT_SET_NO = 999
REV_AT_EPOCH   = 290
BSTAR          = .13743581E-3
MEAN_MOTION_DOT = .62E-6
MEAN_MOTION_DDOT = 0

CCSDS_OMM_VERS = 2.0
CREATION_DATE  = 
ORIGINATOR     = 

OBJECT_NAME    = HULIANWANG DIGUI-106
OBJECT_ID      = 2025-285B
CENTER_NAME    = EARTH
REF_FRAME      = TEME
TIME_SYSTEM    = UTC
MEAN_ELEMENT_THEORY = SGP/SGP4

EPOCH          = 2025-12-26T22:31:56.133696
MEAN_MOTION    = 14.02526836
ECCENTRICITY   = .00067334
INCLINATION    = 50.0067
RA_OF_ASC_NODE = 59.4348
ARG_OF_PERICENTER = 324.7685
MEAN_ANOMALY   = 35.2773

EPHEMERIS_TYPE = 0
CLASSIFICATION_TYPE = U
NORAD_CAT_ID   = 66916
ELEMENT_SET_NO = 999
REV_AT_EPOCH   = 290
BSTAR          = .13527937E-3
MEAN_MOTION_DOT = .59E-6
MEAN_MOTION_DDOT = 0

CCSDS_OMM_VERS = 2.0
CREATION_DATE  = 
ORIGINATOR     = 

OBJECT_NAME    = HULIANWANG DIGUI-107
OBJECT_ID      = 2025-285C
CENTER_NAME    = EARTH
REF_FRAME      = TEME
TIME_SYSTEM    = UTC
MEAN_ELEMENT_THEORY = SGP/SGP4

EPOCH          = 2025-12-26T22:29:20.328576
MEAN_MOTION    = 14.02682287
ECCENTRICITY   = .00073792
INCLINATION    = 50.0032
RA_OF_ASC_NODE = 59.4168
ARG_OF_PERICENTER = 333.9366
MEAN_ANOMALY   = 26.1166

EPHEMERIS_TYPE = 0
CLASSIFICATION_TYPE = U
NORAD_CAT_ID   = 66917
ELEMENT_SET_NO = 999
REV_AT_EPOCH   = 290
BSTAR          = .19858237E-3
MEAN_MOTION_DOT = .157E-5
MEAN_MOTION_DDOT = 0

CCSDS_OMM_VERS = 2.0
CREATION_DATE  = 
ORIGINATOR     = 

OBJECT_NAME    = HULIANWANG DIGUI-108
OBJECT_ID      = 2025-285D
CENTER_NAME    = EARTH
REF_FRAME      = TEME
TIME_SYSTEM    = UTC
MEAN_ELEMENT_THEORY = SGP/SGP4

EPOCH          = 2025-12-26T22:28:29.254944
MEAN_MOTION    = 14.02825466
ECCENTRICITY   = .00066818
INCLINATION    = 50.0054
RA_OF_ASC_NODE = 59.4188
ARG_OF_PERICENTER = 328.9317
MEAN_ANOMALY   = 31.1191

EPHEMERIS_TYPE = 0
CLASSIFICATION_TYPE = U
NORAD_CAT_ID   = 66918
ELEMENT_SET_NO = 999
REV_AT_EPOCH   = 290
BSTAR          = .12868281E-3
MEAN_MOTION_DOT = .49E-6
MEAN_MOTION_DDOT = 0

CCSDS_OMM_VERS = 2.0
CREATION_DATE  = 
ORIGINATOR     = 

OBJECT_NAME    = HULIANWANG DIGUI-109
OBJECT_ID      = 2025-285E
CENTER_NAME    = EARTH
REF_FRAME      = TEME
TIME_SYSTEM    = UTC
MEAN_ELEMENT_THEORY = SGP/SGP4

EPOCH          = 2025-12-26T22:25:38.339328
MEAN_MOTION    = 14.02984874
ECCENTRICITY   = .00080119
INCLINATION    = 50.0078
RA_OF_ASC_NODE = 59.4142
ARG_OF_PERICENTER = 340.5839
MEAN_ANOMALY   = 19.4759

EPHEMERIS_TYPE = 0
CLASSIFICATION_TYPE = U
NORAD_CAT_ID   = 66919
ELEMENT_SET_NO = 999
REV_AT_EPOCH   = 290
BSTAR          = .13352556E-3
MEAN_MOTION_DOT = .57E-6
MEAN_MOTION_DDOT = 0

CCSDS_OMM_VERS = 2.0
CREATION_DATE  = 
ORIGINATOR     = 

OBJECT_NAME    = HULIANWANG DIGUI-110
OBJECT_ID      = 2025-285F
CENTER_NAME    = EARTH
REF_FRAME      = TEME
TIME_SYSTEM    = UTC
MEAN_ELEMENT_THEORY = SGP/SGP4

EPOCH          = 2025-12-26T22:24:33.648192
MEAN_MOTION    = 14.03114696
ECCENTRICITY   = .00057006
INCLINATION    = 50.0122
RA_OF_ASC_NODE = 59.4183
ARG_OF_PERICENTER = 338.2758
MEAN_ANOMALY   = 21.7904

EPHEMERIS_TYPE = 0
CLASSIFICATION_TYPE = U
NORAD_CAT_ID   = 66920
ELEMENT_SET_NO = 999
REV_AT_EPOCH   = 290
BSTAR          = .23433242E-4
MEAN_MOTION_DOT = -.115E-5
MEAN_MOTION_DDOT = 0

CCSDS_OMM_VERS = 2.0
CREATION_DATE  = 
ORIGINATOR     = 

OBJECT_NAME    = HULIANWANG DIGUI-111
OBJECT_ID      = 2025-285G
CENTER_NAME    = EARTH
REF_FRAME      = TEME
TIME_SYSTEM    = UTC
MEAN_ELEMENT_THEORY = SGP/SGP4

EPOCH          = 2025-12-26T22:23:24.693216
MEAN_MOTION    = 14.03318142
ECCENTRICITY   = .00065606
INCLINATION    = 50.0127
RA_OF_ASC_NODE = 59.4178
ARG_OF_PERICENTER = 340.4052
MEAN_ANOMALY   = 19.6600

EPHEMERIS_TYPE = 0
CLASSIFICATION_TYPE = U
NORAD_CAT_ID   = 66921
ELEMENT_SET_NO = 999
REV_AT_EPOCH   = 290
BSTAR          = .24317858E-4
MEAN_MOTION_DOT = -.113E-5
MEAN_MOTION_DDOT = 0

CCSDS_OMM_VERS = 2.0
CREATION_DATE  = 
ORIGINATOR     = 

OBJECT_NAME    = HULIANWANG DIGUI-112
OBJECT_ID      = 2025-285H
CENTER_NAME    = EARTH
REF_FRAME      = TEME
TIME_SYSTEM    = UTC
MEAN_ELEMENT_THEORY = SGP/SGP4

EPOCH          = 2025-12-26T22:21:40.970880
MEAN_MOTION    = 14.03439973
ECCENTRICITY   = .00065887
INCLINATION    = 50.0101
RA_OF_ASC_NODE = 59.4026
ARG_OF_PERICENTER = 352.7149
MEAN_ANOMALY   = 7.3659

EPHEMERIS_TYPE = 0
CLASSIFICATION_TYPE = U
NORAD_CAT_ID   = 66922
ELEMENT_SET_NO = 999
REV_AT_EPOCH   = 290
BSTAR          = .87557181E-4
MEAN_MOTION_DOT = -.14E-6
MEAN_MOTION_DDOT = 0

CCSDS_OMM_VERS = 2.0
CREATION_DATE  = 
ORIGINATOR     = 

OBJECT_NAME    = HULIANWANG DIGUI-113
OBJECT_ID      = 2025-285J
CENTER_NAME    = EARTH
REF_FRAME      = TEME
TIME_SYSTEM    = UTC
MEAN_ELEMENT_THEORY = SGP/SGP4

EPOCH          = 2025-12-26T22:19:45.433344
MEAN_MOTION    = 14.03555639
ECCENTRICITY   = .0005057
INCLINATION    = 50.0098
RA_OF_ASC_NODE = 59.3974
ARG_OF_PERICENTER = 345.0579
MEAN_ANOMALY   = 15.0175

EPHEMERIS_TYPE = 0
CLASSIFICATION_TYPE = U
NORAD_CAT_ID   = 66923
ELEMENT_SET_NO = 999
REV_AT_EPOCH   = 290
BSTAR          = .26625483E-4
MEAN_MOTION_DOT = -.109E-5
MEAN_MOTION_DDOT = 0

CCSDS_OMM_VERS = 2.0
CREATION_DATE  = 
ORIGINATOR     = 

OBJECT_NAME    = CZ-8A R/B
OBJECT_ID      = 2025-285K
CENTER_NAME    = EARTH
REF_FRAME      = TEME
TIME_SYSTEM    = UTC
MEAN_ELEMENT_THEORY = SGP/SGP4

EPOCH          = 2025-12-26T20:12:47.363040
MEAN_MOTION    = 14.30507379
ECCENTRICITY   = .01192354
INCLINATION    = 50.0086
RA_OF_ASC_NODE = 56.1249
ARG_OF_PERICENTER = 156.4510
MEAN_ANOMALY   = 204.1928

EPHEMERIS_TYPE = 0
CLASSIFICATION_TYPE = U
NORAD_CAT_ID   = 66924
ELEMENT_SET_NO = 999
REV_AT_EPOCH   = 294
BSTAR          = .76171995E-4
MEAN_MOTION_DOT = .5E-6
MEAN_MOTION_DDOT = 0

CCSDS_OMM_VERS = 2.0
CREATION_DATE  = 
ORIGINATOR     = 

OBJECT_NAME    = STARLINK-35945
OBJECT_ID      = 2025-286A
CENTER_NAME    = EARTH
REF_FRAME      = TEME
TIME_SYSTEM    = UTC
MEAN_ELEMENT_THEORY = SGP/SGP4

EPOCH          = 2025-12-26T22:00:01.999584
MEAN_MOTION    = 15.55464483
ECCENTRICITY   = .00013542
INCLINATION    = 53.1595
RA_OF_ASC_NODE = 339.9261
ARG_OF_PERICENTER = 87.8756
MEAN_ANOMALY   = 7.6446

EPHEMERIS_TYPE = 0
CLASSIFICATION_TYPE = U
NORAD_CAT_ID   = 66925
ELEMENT_SET_NO = 999
REV_AT_EPOCH   = 426
BSTAR          = -.32430307E-1
MEAN_MOTION_DOT = -.2013767E-1
MEAN_MOTION_DDOT = 0

CCSDS_OMM_VERS = 2.0
CREATION_DATE  = 
ORIGINATOR     = 

OBJECT_NAME    = STARLINK-35942
OBJECT_ID      = 2025-286B
CENTER_NAME    = EARTH
REF_FRAME      = TEME
TIME_SYSTEM    = UTC
MEAN_ELEMENT_THEORY = SGP/SGP4

EPOCH          = 2025-12-26T22:00:01.999584
MEAN_MOTION    = 15.53503683
ECCENTRICITY   = .00011128
INCLINATION    = 53.1593
RA_OF_ASC_NODE = 339.9778
ARG_OF_PERICENTER = 86.3130
MEAN_ANOMALY   = 343.6906

EPHEMERIS_TYPE = 0
CLASSIFICATION_TYPE = U
NORAD_CAT_ID   = 66926
ELEMENT_SET_NO = 999
REV_AT_EPOCH   = 426
BSTAR          = -.34896583E-1
MEAN_MOTION_DOT = -.2015197E-1
MEAN_MOTION_DDOT = 0

CCSDS_OMM_VERS = 2.0
CREATION_DATE  = 
ORIGINATOR     = 

OBJECT_NAME    = STARLINK-35943
OBJECT_ID      = 2025-286C
CENTER_NAME    = EARTH
REF_FRAME      = TEME
TIME_SYSTEM    = UTC
MEAN_ELEMENT_THEORY = SGP/SGP4

EPOCH          = 2025-12-26T22:00:01.999584
MEAN_MOTION    = 15.53504091
ECCENTRICITY   = .00011747
INCLINATION    = 53.1591
RA_OF_ASC_NODE = 339.9736
ARG_OF_PERICENTER = 88.5926
MEAN_ANOMALY   = 343.3281

EPHEMERIS_TYPE = 0
CLASSIFICATION_TYPE = U
NORAD_CAT_ID   = 66927
ELEMENT_SET_NO = 999
REV_AT_EPOCH   = 426
BSTAR          = -.34953681E-1
MEAN_MOTION_DOT = -.2018208E-1
MEAN_MOTION_DDOT = 0

CCSDS_OMM_VERS = 2.0
CREATION_DATE  = 
ORIGINATOR     = 

OBJECT_NAME    = STARLINK-35944
OBJECT_ID      = 2025-286D
CENTER_NAME    = EARTH
REF_FRAME      = TEME
TIME_SYSTEM    = UTC
MEAN_ELEMENT_THEORY = SGP/SGP4

EPOCH          = 2025-12-26T22:00:01.999584
MEAN_MOTION    = 15.53505495
ECCENTRICITY   = .00012119
INCLINATION    = 53.1593
RA_OF_ASC_NODE = 339.9812
ARG_OF_PERICENTER = 84.8799
MEAN_ANOMALY   = 343.2070

EPHEMERIS_TYPE = 0
CLASSIFICATION_TYPE = U
NORAD_CAT_ID   = 66928
ELEMENT_SET_NO = 999
REV_AT_EPOCH   = 426
BSTAR          = -.3501213E-1
MEAN_MOTION_DOT = -.2021339E-1
MEAN_MOTION_DDOT = 0

